COMMENT,ORIGINATOR,NORAD_CAT_ID,OBJECT_NAME,OBJECT_TYPE,CLASSIFICATION_TYPE,INTLDES,EPOCH,EPOCH_MICROSECONDS,MEAN_MOTION,ECCENTRICITY,INCLINATION,RA_OF_ASC_NODE,ARG_OF_PERICENTER,MEAN_ANOMALY,EPHEMERIS_TYPE,ELEMENT_SET_NO,REV_AT_EPOCH,BSTAR,MEAN_MOTION_DOT,MEAN_MOTION_DDOT,FILE,TLE_LINE0,TLE_LINE1,TLE_LINE2,OBJECT_ID,OBJECT_NUMBER,SEMIMAJOR_AXIS,PERIOD,APOGEE,PERIGEE,DECAYED,date
GENERATED VIA SPACETRACK.ORG API,18 SPCS,52182,SPACEBEE-128,PAYLOAD,U,22033AB,2023/1/24 5:22,497888,15.30938496,0.0007854,97.3663,107.6536,323.7828,36.288,0,999,4532,0.001518,0.00045563,0,3759655,0 SPACEBEE-128,1 52182U 22033AB  23024.22366317  .00045563  00000-0  15180-2 0  9999,2 52182  97.3663 107.6536 0007854 323.7828  36.2880 15.30938496 45328,2022-033AB,52182,6851.148,94.06,478.394,467.632,1,2023/2/16
GENERATED VIA SPACETRACK.ORG API,18 SPCS,52182,SPACEBEE-128,PAYLOAD,U,22033AB,2023/1/25 4:53,26784,15.31011538,0.0007909,97.3656,108.6267,320.2529,39.8132,0,999,4547,0.0012095,0.00036327,0,3760721,0 SPACEBEE-128,1 52182U 22033AB  23025.20406281  .00036327  00000-0  12095-2 0  9993,2 52182  97.3656 108.6267 0007909 320.2529  39.8132 15.31011538 45478,2022-033AB,52182,6850.93,94.055,478.213,467.377,1,2023/2/17
GENERATED VIA SPACETRACK.ORG API,18 SPCS,52182,SPACEBEE-128,PAYLOAD,U,22033AB,2023/1/25 11:10,726528,15.31031835,0.0007806,97.3655,108.8864,319.1015,40.964,0,999,4553,0.0012397,0.00037263,0,3761297,0 SPACEBEE-128,1 52182U 22033AB  23025.46549452  .00037263  00000-0  12397-2 0  9994,2 52182  97.3655 108.8864 0007806 319.1015  40.9640 15.31031835 45531,2022-033AB,52182,6850.869,94.054,478.082,467.387,1,2023/2/18
GENERATED VIA SPACETRACK.ORG API,18 SPCS,52182,SPACEBEE-128,PAYLOAD,U,22033AB,2023/1/25 19:00,960896,15.31057255,0.0007823,97.3654,109.2109,317.813,42.2509,0,999,4558,0.0012482,0.0003755,0,3761360,0 SPACEBEE-128,1 52182U 22033AB  23025.79227964  .00037550  00000-0  12482-2 0  9995,2 52182  97.3654 109.2109 0007823 317.8130  42.2509 15.31057255 45587,2022-033AB,52182,6850.794,94.053,478.018,467.299,1,2023/2/19
GENERATED VIA SPACETRACK.ORG API,18 SPCS,52182,SPACEBEE-128,PAYLOAD,U,22033AB,2023/1/26 4:25,369600,15.31089557,0.0007822,97.3653,109.6003,316.472,43.5903,0,999,4564,0.0013036,0.00039268,0,3761951,0 SPACEBEE-128,1 52182U 22033AB  23026.18441400  .00039268  00000-0  13036-2 0  9996,2 52182  97.3653 109.6003 0007822 316.4720  43.5903 15.31089557 45641,2022-033AB,52182,6850.697,94.051,477.921,467.204,1,2023/2/20
GENERATED VIA SPACETRACK.ORG API,18 SPCS,52182,SPACEBEE-128,PAYLOAD,U,22033AB,2023/1/26 23:14,145376,15.31152682,0.0007742,97.3651,110.379,313.6104,46.4494,0,999,4574,0.001341,0.00040482,0,3762339,0 SPACEBEE-128,1 52182U 22033AB  23026.96865909  .00040482  00000-0  13410-2 0  9992,2 52182  97.3651 110.3790 0007742 313.6104  46.4494 15.31152682 45745,2022-033AB,52182,6850.509,94.047,477.678,467.07,1,2023/2/21
GENERATED VIA SPACETRACK.ORG API,18 SPCS,52182,SPACEBEE-128,PAYLOAD,U,22033AB,2023/1/27 3:57,433888,15.31167455,0.0007725,97.3651,110.5738,312.9471,47.1121,0,999,4579,0.0012939,0.00039067,0,3762956,0 SPACEBEE-128,1 52182U 22033AB  23027.16471567  .00039067  00000-0  12939-2 0  9990,2 52182  97.3651 110.5738 0007725 312.9471  47.1121 15.31167455 45793,2022-033AB,52182,6850.465,94.046,477.622,467.038,1,2023/2/22
GENERATED VIA SPACETRACK.ORG API,18 SPCS,52182,SPACEBEE-128,PAYLOAD,U,22033AB,2023/1/27 16:30,86560,15.31203772,0.0007676,97.3652,111.0931,311.0766,48.9811,0,999,4587,0.0011637,0.0003515,0,3763218,0 SPACEBEE-128,1 52182U 22033AB  23027.68752415  .00035150  00000-0  11637-2 0  9994,2 52182  97.3652 111.0931 0007676 311.0766  48.9811 15.31203772 45874,2022-033AB,52182,6850.357,94.044,477.48,466.963,1,2023/2/23
GENERATED VIA SPACETRACK.ORG API,18 SPCS,52182,SPACEBEE-128,PAYLOAD,U,22033AB,2023/1/28 5:02,692928,15.31238687,0.000768,97.3652,111.6125,309.0766,50.9792,0,999,4593,0.0011475,0.00034695,0,3763588,0 SPACEBEE-128,1 52182U 22033AB  23028.21032052  .00034695  00000-0  11475-2 0  9995,2 52182  97.3652 111.6125 0007680 309.0766  50.9792 15.31238687 45938,2022-033AB,52182,6850.252,94.042,477.378,466.856,1,2023/2/24
GENERATED VIA SPACETRACK.ORG API,18 SPCS,52182,SPACEBEE-128,PAYLOAD,U,22033AB,2023/1/28 5:02,692928,15.31238687,0.000768,97.3652,111.6125,309.0766,50.9792,0,999,4595,0.0011475,0.00034695,0,3763924,0 SPACEBEE-128,1 52182U 22033AB  23028.21032052  .00034695  00000-0  11475-2 0  9995,2 52182  97.3652 111.6125 0007680 309.0766  50.9792 15.31238687 45950,2022-033AB,52182,6850.252,94.042,477.378,466.856,1,2023/2/25
GENERATED VIA SPACETRACK.ORG API,18 SPCS,52182,SPACEBEE-128,PAYLOAD,U,22033AB,2023/1/28 17:35,264224,15.3127095,0.0007679,97.3652,112.1318,306.8874,53.1663,0,999,4603,0.00098598,0.00029811,0,3764201,0 SPACEBEE-128,1 52182U 22033AB  23028.73310491  .00029811  00000-0  98598-3 0  9994,2 52182  97.3652 112.1318 0007679 306.8874  53.1663 15.31270950 46034,2022-033AB,52182,6850.156,94.04,477.282,466.761,1,2023/2/26
GENERATED VIA SPACETRACK.ORG API,18 SPCS,52182,SPACEBEE-128,PAYLOAD,U,22033AB,2023/1/29 18:41,579808,15.31333148,0.000769,97.3653,113.1707,302.6217,57.4282,0,999,4617,0.00090983,0.00027548,0,3764971,0 SPACEBEE-128,1 52182U 22033AB  23029.77864097  .00027548  00000-0  90983-3 0  9990,2 52182  97.3653 113.1707 0007690 302.6217  57.4282 15.31333148 46174,2022-033AB,52182,6849.971,94.036,477.103,466.568,1,2023/2/27
GENERATED VIA SPACETRACK.ORG API,18 SPCS,52182,SPACEBEE-128,PAYLOAD,U,22033AB,2023/1/29 18:41,579808,15.31333148,0.000769,97.3653,113.1707,302.6217,57.4282,0,999,4619,0.00090983,0.00027548,0,3765015,0 SPACEBEE-128,1 52182U 22033AB  23029.77864097  .00027548  00000-0  90983-3 0  9990,2 52182  97.3653 113.1707 0007690 302.6217  57.4282 15.31333148 46196,2022-033AB,52182,6849.971,94.036,477.103,466.568,1,2023/2/28
GENERATED VIA SPACETRACK.ORG API,18 SPCS,52182,SPACEBEE-128,PAYLOAD,U,22033AB,2023/1/30 4:05,27776,15.31355573,0.000767,97.3654,113.5601,301.2674,58.7816,0,999,4625,0.00089046,0.00026977,0,3765576,0 SPACEBEE-128,1 52182U 22033AB  23030.17070634  .00026977  00000-0  89046-3 0  9995,2 52182  97.3654 113.5601 0007670 301.2674  58.7816 15.31355573 46254,2022-033AB,52182,6849.904,94.034,477.023,466.515,1,2023/3/1
GENERATED VIA SPACETRACK.ORG API,18 SPCS,52182,SPACEBEE-128,PAYLOAD,U,22033AB,2023/1/30 22:54,509344,15.31397102,0.0007564,97.3655,114.3391,298.1114,61.9362,0,999,4635,0.00086303,0.00026174,0,3765822,0 SPACEBEE-128,1 52182U 22033AB  23030.95482071  .00026174  00000-0  86303-3 0  9995,2 52182  97.3655 114.3391 0007564 298.1114  61.9362 15.31397102 46352,2022-033AB,52182,6849.78,94.032,476.826,466.464,1,2023/3/2
GENERATED VIA SPACETRACK.ORG API,18 SPCS,52182,SPACEBEE-128,PAYLOAD,U,22033AB,2023/1/31 11:27,399488,15.31429029,0.0007566,97.3653,114.8582,295.9095,64.1366,0,999,4645,0.00093274,0.0002833,0,3766475,0 SPACEBEE-128,1 52182U 22033AB  23031.47755092  .00028330  00000-0  93274-3 0  9990,2 52182  97.3653 114.8582 0007566 295.9095  64.1366 15.31429029 46456,2022-033AB,52182,6849.685,94.03,476.732,466.367,1,2023/3/3
GENERATED VIA SPACETRACK.ORG API,18 SPCS,52182,SPACEBEE-128,PAYLOAD,U,22033AB,2023/2/1 4:42,136320,15.31477005,0.0007565,97.3653,115.5727,293.2166,66.8278,0,999,4654,0.0010225,0.00031121,0,3767155,0 SPACEBEE-128,1 52182U 22033AB  23032.19628630  .00031121  00000-0  10225-2 0  9993,2 52182  97.3653 115.5727 0007565 293.2166  66.8278 15.31477005 46542,2022-033AB,52182,6849.542,94.027,476.588,466.225,1,2023/3/4
GENERATED VIA SPACETRACK.ORG API,18 SPCS,52182,SPACEBEE-128,PAYLOAD,U,22033AB,2023/2/1 4:42,136320,15.31477005,0.0007565,97.3653,115.5727,293.2166,66.8278,0,999,4656,0.0010225,0.00031121,0,3767525,0 SPACEBEE-128,1 52182U 22033AB  23032.19628630  .00031121  00000-0  10225-2 0  9993,2 52182  97.3653 115.5727 0007565 293.2166  66.8278 15.31477005 46564,2022-033AB,52182,6849.542,94.027,476.588,466.225,1,2023/3/5
GENERATED VIA SPACETRACK.ORG API,18 SPCS,52182,SPACEBEE-128,PAYLOAD,U,22033AB,2023/2/2 4:13,164800,15.3154676,0.0007533,97.3654,116.5465,289.5067,70.536,0,999,4671,0.0012642,0.00038617,0,3768366,0 SPACEBEE-128,1 52182U 22033AB  23033.17634450  .00038617  00000-0  12642-2 0  9991,2 52182  97.3654 116.5465 0007533 289.5067  70.5360 15.31546760 46714,2022-033AB,52182,6849.334,94.023,476.358,466.039,1,2023/3/6
GENERATED VIA SPACETRACK.ORG API,18 SPCS,52182,SPACEBEE-128,PAYLOAD,U,22033AB,2023/2/2 23:02,94496,15.31594795,0.0007498,97.3654,117.3255,286.3712,73.6705,0,999,4681,0.00099921,0.0003052,0,3769213,0 SPACEBEE-128,1 52182U 22033AB  23033.96035989  .00030520  00000-0  99921-3 0  9991,2 52182  97.3654 117.3255 0007498 286.3712  73.6705 15.31594795 46811,2022-033AB,52182,6849.191,94.02,476.191,465.92,1,2023/3/7
GENERATED VIA SPACETRACK.ORG API,18 SPCS,52182,SPACEBEE-128,PAYLOAD,U,22033AB,2023/2/3 5:19,200896,15.31615457,0.0007501,97.3654,117.5853,285.3032,74.738,0,999,4687,0.0010731,0.00032813,0,3770323,0 SPACEBEE-128,1 52182U 22033AB  23034.22169214  .00032813  00000-0  10731-2 0  9998,2 52182  97.3654 117.5853 0007501 285.3032  74.7380 15.31615457 46872,2022-033AB,52182,6849.129,94.018,476.132,465.856,1,2023/3/8
GENERATED VIA SPACETRACK.ORG API,18 SPCS,52182,SPACEBEE-128,PAYLOAD,U,22033AB,2023/2/4 4:50,529408,15.31686352,0.00075,97.3653,118.5593,281.4355,78.6044,0,999,4700,0.0012368,0.00037939,0,3771436,0 SPACEBEE-128,1 52182U 22033AB  23035.20166122  .00037939  00000-0  12368-2 0  9994,2 52182  97.3653 118.5593 0007500 281.4355  78.6044 15.31686352 47005,2022-033AB,52182,6848.918,94.014,475.919,465.646,1,2023/3/9
GENERATED VIA SPACETRACK.ORG API,18 SPCS,52182,SPACEBEE-128,PAYLOAD,U,22033AB,2023/2/4 4:50,529408,15.31686352,0.00075,97.3653,118.5593,281.4355,78.6044,0,999,4702,0.0012368,0.00037939,0,3771952,0 SPACEBEE-128,1 52182U 22033AB  23035.20166122  .00037939  00000-0  12368-2 0  9994,2 52182  97.3653 118.5593 0007500 281.4355  78.6044 15.31686352 47027,2022-033AB,52182,6848.918,94.014,475.919,465.646,1,2023/3/10
